     2.100          NAVIGATION                              RINEX VERSION / TYPE
fic2rin                                 12/09/2014 00:27:35 PGM / RUN BY / DATE
                                                            END OF HEADER
 9 14 12  8  4  0  0.0 -.223927199841D-04 -.886757334229D-11  .000000000000D+00
     .340000000000D+02  .446562500000D+02  .429767901558D-08 -.129016815293D+01
     .212900340557D-05  .228494405746D-03  .113695859909D-04  .515370035934D+04
     .100800000000D+06 -.335276126862D-07 -.311711375948D+01  .111758708954D-07
     .959313254242D+00  .160093750000D+03  .281664431883D+01 -.777496671571D-08
    -.333228166005D-09  .100000000000D+01  .182200000000D+04  .000000000000D+00
     .240000000000D+01  .000000000000D+00  .465661287308D-09  .340000000000D+02
     .936060000000D+05  .400000000000D+01
11 14 12  8  4  0  0.0 -.542003195733D-03 -.272848410532D-11  .000000000000D+00
     .760000000000D+02 -.103125000000D+01  .578452666304D-08 -.297974271774D+01
    -.111758708954D-07  .156352405902D-01  .983662903309D-05  .515372058296D+04
     .100800000000D+06  .251457095146D-06  .742449078579D+00 -.447034835815D-07
     .891836688875D+00  .149218750000D+03  .136640227257D+01 -.825462955274D-08
     .557523223080D-09  .100000000000D+01  .182200000000D+04  .000000000000D+00
     .340000000000D+01  .000000000000D+00 -.121071934700D-07  .760000000000D+02
     .936060000000D+05  .400000000000D+01
12 14 12  8  4  0  0.0  .251941848546D-03  .284217094304D-11  .000000000000D+00
     .590000000000D+02 -.777500000000D+02  .407695553585D-08  .279788068724D+01
    -.414066016674D-05  .503207603469D-02  .215321779251D-05  .515377014351D+04
     .100800000000D+06 -.875443220139D-07 -.975759964456D+00 -.856816768646D-07
     .988795528606D+00  .350687500000D+03  .498279431636D+00 -.799783314185D-08
    -.257867884090D-09  .100000000000D+01  .182200000000D+04  .000000000000D+00
     .240000000000D+01  .000000000000D+00 -.121071934700D-07  .590000000000D+02
     .936060000000D+05  .400000000000D+01
13 14 12  8  4  0  0.0 -.676014460623D-04 -.352429196937D-11  .000000000000D+00
     .290000000000D+02  .621875000000D+02  .389766235328D-08 -.195117889052D+01
     .328384339809D-05  .587507337332D-02  .111740082502D-04  .515589916420D+04
     .100800000000D+06 -.894069671631D-07 -.300478295839D+01  .113621354103D-06
     .976153426514D+00  .175125000000D+03  .221078315414D+01 -.757174396496D-08
    -.237152735506D-09  .100000000000D+01  .182200000000D+04  .000000000000D+00
     .240000000000D+01  .000000000000D+00 -.111758708954D-07  .290000000000D+02
     .936060000000D+05  .400000000000D+01
15 14 12  8  4  0  0.0 -.219054985791D-03 -.227373675443D-11  .000000000000D+00
     .640000000000D+02  .427500000000D+02  .487770317592D-08 -.113167637333D+01
     .208988785744D-05  .694963242859D-02  .105593353510D-04  .515381709099D+04
     .100800000000D+06  .135973095894D-06  .312665709240D+01 -.856816768646D-07
     .935251740898D+00  .158406250000D+03  .324236540268D+00 -.804069206996D-08
    -.300369654459D-09  .100000000000D+01  .182200000000D+04  .000000000000D+00
     .240000000000D+01  .000000000000D+00 -.102445483208D-07  .640000000000D+02
     .936060000000D+05  .400000000000D+01
16 14 12  8  4  0  0.0 -.174912158400D-03  .295585778076D-11  .000000000000D+00
     .650000000000D+02 -.775937500000D+02  .417053086221D-08  .649509557994D+00
    -.393390655518D-05  .779264327139D-02  .166706740856D-05  .515370794487D+04
     .100800000000D+06  .502914190292D-07 -.957125875723D+00  .117346644402D-06
     .989377829981D+00  .358437500000D+03  .229213187969D+00 -.824462913618D-08
    -.340728478423D-09  .100000000000D+01  .182200000000D+04  .000000000000D+00
     .240000000000D+01  .000000000000D+00 -.102445483208D-07  .650000000000D+02
     .936060000000D+05  .400000000000D+01
17 14 12  8  4  0  0.0 -.142500735819D-03 -.250111042988D-11  .000000000000D+00
     .790000000000D+02 -.873437500000D+02  .408267005960D-08 -.265162454086D+00
    -.455230474472D-05  .981329206843D-02  .103097409010D-04  .515368829346D+04
     .100800000000D+06 -.242143869400D-07  .716618730504D-01  .135973095894D-06
     .971067316783D+00  .189375000000D+03 -.207450500437D+01 -.791282960111D-08
     .125005206969D-10  .100000000000D+01  .182200000000D+04  .000000000000D+00
     .240000000000D+01  .000000000000D+00 -.107102096081D-07  .790000000000D+02
     .936060000000D+05  .400000000000D+01
18 14 12  8  4  0  0.0  .363603699952D-03  .261479726760D-11  .000000000000D+00
     .210000000000D+02 -.200000000000D+02  .578952687132D-08  .121513848886D+01
    -.109709799290D-05  .155154414242D-01  .559911131859D-05  .515373699379D+04
     .100800000000D+06 -.324100255966D-06  .210736411206D+01  .372529029846D-08
     .925018922980D+00  .254812500000D+03 -.200142568220D+01 -.880500962114D-08
    -.346800159904D-09  .100000000000D+01  .182200000000D+04  .000000000000D+00
     .240000000000D+01  .000000000000D+00 -.111758708954D-07  .210000000000D+02
     .936060000000D+05  .400000000000D+01
19 14 12  8  4  0  0.0 -.491502229124D-03 -.159161572810D-11  .000000000000D+00
     .130000000000D+02 -.101156250000D+03  .398338020949D-08 -.111286383200D+01
    -.527128577232D-05  .107459572610D-01  .109970569611D-04  .515368132591D+04
     .100800000000D+06  .284984707832D-06  .121806279480D+00 -.633299350739D-07
     .968141078322D+00  .170843750000D+03  .513483824502D+00 -.768174854709D-08
     .478591363823D-10  .100000000000D+01  .182200000000D+04  .000000000000D+00
     .240000000000D+01  .000000000000D+00 -.149011611938D-07  .130000000000D+02
     .936060000000D+05  .400000000000D+01
20 14 12  8  4  0  0.0  .264973845333D-03  .409272615798D-11  .000000000000D+00
     .590000000000D+02 -.135312500000D+02  .564773525084D-08  .174181802462D+01
    -.789761543274D-06  .628974742722D-02  .495463609695D-05  .515366716766D+04
     .100800000000D+06 -.242143869400D-07  .205448716923D+01 -.154599547386D-06
     .926105773097D+00  .264843750000D+03  .133942829560D+01 -.857464288258D-08
    -.173221501085D-09  .100000000000D+01  .182200000000D+04  .000000000000D+00
     .240000000000D+01  .000000000000D+00 -.838190317154D-08  .590000000000D+02
     .936060000000D+05  .400000000000D+01
21 14 12  8  4  0  0.0 -.399032607675D-03 -.204636307899D-11  .000000000000D+00
     .106000000000D+03  .199687500000D+02  .513807116414D-08  .218891458864D+01
     .704079866409D-06  .218103114748D-01  .835210084915D-05  .515364612198D+04
     .100800000000D+06  .134110450745D-06  .106278911460D+01 -.402331352234D-06
     .932831161534D+00  .200437500000D+03 -.197216882742D+01 -.797461788913D-08
     .618597195628D-09  .100000000000D+01  .182200000000D+04  .000000000000D+00
     .240000000000D+01  .000000000000D+00 -.116415321827D-07  .106000000000D+03
     .936060000000D+05  .400000000000D+01
22 14 12  8  4  0  0.0  .294588506222D-03  .386535248253D-11  .000000000000D+00
     .860000000000D+02 -.183125000000D+02  .582238538286D-08  .700457725264D+00
    -.935047864914D-06  .731624721084D-02  .531412661076D-05  .515370335007D+04
     .100800000000D+06 -.115483999252D-06  .210887414780D+01  .316649675369D-07
     .922818101707D+00  .257468750000D+03 -.206412575713D+01 -.871964892266D-08
    -.334299639208D-09  .100000000000D+01  .182200000000D+04  .000000000000D+00
     .240000000000D+01  .000000000000D+00 -.176951289177D-07  .860000000000D+02
     .936060000000D+05  .400000000000D+01
24 14 12  8  4  0  0.0 -.397115945816D-04 -.682121026330D-12  .000000000000D+00
     .790000000000D+02  .119343750000D+03  .472305387701D-08 -.216038811620D+01
     .610202550888D-05  .264731864445D-02  .466406345367D-05  .515369621849D+04
     .100800000000D+06 -.111758708954D-07 -.208019573815D+01 -.223517417908D-07
     .955103243724D+00  .288406250000D+03  .212347088400D+00 -.824820071352D-08
     .320370487574D-09  .100000000000D+01  .182200000000D+04  .000000000000D+00
     .240000000000D+01  .000000000000D+00  .279396772385D-08  .790000000000D+02
     .936060000000D+05  .400000000000D+01
25 14 12  8  4  0  0.0  .104820355773D-04 -.204636307899D-11  .000000000000D+00
     .810000000000D+02 -.684375000000D+02  .442161274935D-08  .205406858886D+01
    -.357814133167D-05  .384826702066D-02  .145472586155D-05  .515375523758D+04
     .100800000000D+06 -.167638063431D-06 -.102042793413D+01 -.372529029846D-07
     .977378468262D+00  .359125000000D+03  .680747742207D+00 -.827070165078D-08
    -.198936857947D-09  .100000000000D+01  .182200000000D+04  .000000000000D+00
     .240000000000D+01  .000000000000D+00  .512227416039D-08  .810000000000D+02
     .936060000000D+05  .400000000000D+01
26 14 12  8  4  0  0.0 -.149444211274D-03 -.131876731757D-10  .000000000000D+00
     .810000000000D+02  .645937500000D+02  .391552023999D-08 -.156099394619D+01
     .362098217010D-05  .213729662355D-01  .106226652861D-04  .515369093323D+04
     .100800000000D+06  .400468707085D-06 -.301438457105D+01  .400468707085D-06
     .973509153810D+00  .179187500000D+03  .129869414044D+01 -.751317009655D-08
    -.240724312848D-09  .100000000000D+01  .182200000000D+04  .000000000000D+00
     .240000000000D+01  .000000000000D+00 -.651925802231D-08  .810000000000D+02
     .936060000000D+05  .400000000000D+01
27 14 12  8  4  0  0.0  .354745425284D-04  .272848410532D-11  .000000000000D+00
     .520000000000D+02 -.118500000000D+03  .407409827397D-08 -.324221731148D+00
    -.625289976597D-05  .165956420824D-02  .106915831566D-04  .515369337082D+04
     .100800000000D+06  .223517417908D-07  .249492793291D-01  .316649675369D-07
     .965903727984D+00  .176125000000D+03  .233325193217D+00 -.780853954273D-08
    -.800033324599D-10  .100000000000D+01  .182200000000D+04  .000000000000D+00
     .240000000000D+01  .000000000000D+00  .139698386192D-08  .520000000000D+02
     .936060000000D+05  .400000000000D+01
